{
    "links": {
        "self": "http://www.neowsapp.com/rest/v1/neo/3797454?api_key=iIulBulltgU6a56xZRHN4H3l9WmuAYTsLGpBGhQ2"
    },
    "id": "3797454",
    "neo_reference_id": "3797454",
    "name": "(2018 AP2)",
    "designation": "2018 AP2",
    "nasa_jpl_url": "http://ssd.jpl.nasa.gov/sbdb.cgi?sstr=3797454",
    "absolute_magnitude_h": 24.7,
    "estimated_diameter": {
        "kilometers": {
            "estimated_diameter_min": 0.0305179233,
            "estimated_diameter_max": 0.0682401509
        },
        "meters": {
            "estimated_diameter_min": 30.5179232594,
            "estimated_diameter_max": 68.2401509401
        },
        "miles": {
            "estimated_diameter_min": 0.0189629525,
            "estimated_diameter_max": 0.0424024508
        },
        "feet": {
            "estimated_diameter_min": 100.1244233463,
            "estimated_diameter_max": 223.8850168104
        }
    },
    "is_potentially_hazardous_asteroid": false,
    "close_approach_data": [
        {
            "close_approach_date": "1934-01-12",
            "close_approach_date_full": "1934-Jan-12 04:03",
            "epoch_date_close_approach": -1135108620000,
            "relative_velocity": {
                "kilometers_per_second": "10.0831286507",
                "kilometers_per_hour": "36299.2631424725",
                "miles_per_hour": "22554.9504787213"
            },
            "miss_distance": {
                "astronomical": "0.0474397338",
                "lunar": "18.4540564482",
                "kilometers": "7096883.129847006",
                "miles": "4409798.6918044428"
            },
            "orbiting_body": "Earth"
        },
        {
            "close_approach_date": "1942-12-15",
            "close_approach_date_full": "1942-Dec-15 01:18",
            "epoch_date_close_approach": -853540920000,
            "relative_velocity": {
                "kilometers_per_second": "15.8979415354",
                "kilometers_per_hour": "57232.5895275347",
                "miles_per_hour": "35562.1054205951"
            },
            "miss_distance": {
                "astronomical": "0.4225271668",
                "lunar": "164.3630678852",
                "kilometers": "63209164.170414716",
                "miles": "39276353.3467904408"
            },
            "orbiting_body": "Earth"
        },
        {
            "close_approach_date": "2009-02-04",
            "close_approach_date_full": "2009-Feb-04 11:31",
            "epoch_date_close_approach": 1233747060000,
            "relative_velocity": {
                "kilometers_per_second": "16.4110739657",
                "kilometers_per_hour": "59079.866276588",
                "miles_per_hour": "36709.9313539166"
            },
            "miss_distance": {
                "astronomical": "0.4037218137",
                "lunar": "157.0477855293",
                "kilometers": "60395923.402056819",
                "miles": "37528286.5922653422"
            },
            "orbiting_body": "Earth"
        },
        {
            "close_approach_date": "2018-01-10",
            "close_approach_date_full": "2018-Jan-10 11:48",
            "epoch_date_close_approach": 1515584880000,
            "relative_velocity": {
                "kilometers_per_second": "10.0197990387",
                "kilometers_per_hour": "36071.2765392462",
                "miles_per_hour": "22413.2884696222"
            },
            "miss_distance": {
                "astronomical": "0.0482488673",
                "lunar": "18.7688093797",
                "kilometers": "7217927.777992651",
                "miles": "4485012.3484585438"
            },
            "orbiting_body": "Earth"
        },
        {
            "close_approach_date": "2026-12-12",
            "close_approach_date_full": "2026-Dec-12 14:12",
            "epoch_date_close_approach": 1797084720000,
            "relative_velocity": {
                "kilometers_per_second": "17.0481203734",
                "kilometers_per_hour": "61373.2333441248",
                "miles_per_hour": "38134.9404631869"
            },
            "miss_distance": {
                "astronomical": "0.4660616606",
                "lunar": "181.2979859734",
                "kilometers": "69721831.714422922",
                "miles": "43323137.3067714436"
            },
            "orbiting_body": "Earth"
        }
    ],
    "orbital_data": {
        "orbit_id": "3",
        "orbit_determination_date": "2018-01-20 06:52:48",
        "first_observation_date": "2018-01-07",
        "last_observation_date": "2018-01-20",
        "data_arc_in_days": 13,
        "observations_used": 34,
        "orbit_uncertainty": "7",
        "minimum_orbit_intersection": ".0451954",
        "jupiter_tisserand_invariant": "4.504",
        "epoch_osculation": "2459000.5",
        "eccentricity": ".3020717777273018",
        "semi_major_axis": "1.472121773431915",
        "inclination": "17.13804731275647",
        "ascending_node_longitude": "111.5278850258378",
        "orbital_period": "652.4001183425594",
        "perihelion_distance": "1.027435332300269",
        "perihelion_argument": "354.1760141935347",
        "aphelion_distance": "1.916808214563562",
        "perihelion_time": "2458776.586571109017",
        "mean_anomaly": "123.5573571101473",
        "mean_motion": ".5518086062194317",
        "equinox": "J2000",
        "orbit_class": {
            "orbit_class_type": "AMO",
            "orbit_class_description": "Near-Earth asteroid orbits similar to that of 1221 Amor",
            "orbit_class_range": "1.017 AU < q (perihelion) < 1.3 AU"
        }
    },
    "is_sentry_object": false
}